ESTCUBE 1               
1 39161U 13021C   22032.47622076  .00000544  00000+0  93054-4 0  9997
2 39161  97.9222 113.2146 0010097 131.9920 228.2151 14.72657182469455
FENGYUN 3C              
1 39260U 13052A   22032.45048171  .00000044  00000+0  43129-4 0  9990
2 39260  98.4721  67.3379 0010243 311.4619  48.5676 14.15896882432673
CASSIOPE                
1 39265U 13055A   22032.52185740  .00015700  00000+0  42940-3 0  9994
2 39265  80.9639  51.1184 0636679   0.2317 359.9036 14.35230170432811
ZACUBE-1 (TSHEPISOSAT)  
1 39417U 13066B   22032.52690172  .00001225  00000+0  15691-3 0  9995
2 39417  97.6200  10.3516 0059476 129.2740 231.3771 14.81805942442996
CINEMA-3 (KHUSAT-2)     
1 39426U 13066L   22032.41821531  .00000999  00000+0  16237-3 0  9992
2 39426  97.7854 338.4080 0102818 312.2419  47.0098 14.69860790439288
TRITON-1                
1 39427U 13066M   22032.55582928  .00001637  00000+0  26483-3 0  9996
2 39427  97.8020 334.4094 0112425 339.7092  19.9664 14.68505928438837
DELFI-N3XT              
1 39428U 13066N   22032.54883971  .00002979  00000+0  47039-3 0  9998
2 39428  97.8049 332.9190 0118984 352.9397   7.0128 14.68431075438586
GOMX-1                  
1 39430U 13066Q   22032.48285988  .00000483  00000+0  94747-4 0  9995
2 39430  97.8159 307.4297 0151350 113.2123 248.5096 14.59826857436451
BRITE-PL1 (LEM)         
1 39431U 13066R   22032.38083397  .00000417  00000+0  99407-4 0  9990
2 39431  97.7191 258.0325 0200620 290.3643  67.6101 14.47224760432689
ICUBE-1                 
1 39432U 13066S   22032.53502094  .00001952  00000+0  19969-3 0  9997
2 39432  97.4693  43.4324 0031545   1.4297 358.7006 14.91271654444441
HUMSAT-D                
1 39433U 13066T   22032.51009788  .00003076  00000+0  29566-3 0  9991
2 39433  97.4563  50.8014 0029326 337.6843  22.3099 14.93413607444928
VELOX-PII               
1 39438U 13066Y   22032.48354231  .00000934  00000+0  12987-3 0  9997
2 39438  97.6741   1.2622 0069945 178.1823 181.9657 14.78462127440916
FIRST-MOVE              
1 39439U 13066Z   22032.44279950  .00002508  00000+0  30242-3 0  9991
2 39439  97.6229  12.2624 0065213 126.1138 234.6137 14.83160032441880
CUBEBUG-2 (LO-74)       
1 39440U 13066AA  22032.46618893  .00001103  00000+0  15774-3 0  9991
2 39440  97.7086 355.9381 0078565 211.7641 147.8818 14.76525405440213
NEE-02 KRYSAOR          
1 39441U 13066AB  22032.42593564  .00000812  00000+0  12099-3 0  9998
2 39441  97.7193 353.1507 0080037 224.6351 134.8398 14.75388148439971
FUNCUBE-1 (AO-73)       
1 39444U 13066AE  22032.50218125  .00001616  00000+0  20033-3 0  9997
2 39444  97.6089  12.7209 0058625 118.6008 242.1122 14.82772077441374
HINCUBE                 
1 39445U 13066AF  22032.46921381  .00001563  00000+0  19479-3 0  9991
2 39445  97.6104  12.5227 0058632 120.7250 239.9758 14.82592240441317
UWE-3                   
1 39446U 13066AG  22032.45175304  .00001110  00000+0  15092-3 0  9992
2 39446  97.6677   2.5936 0069438 171.5077 188.7328 14.79063259440352
AIST-1 (RS-41)          
1 39492U 13078C   22032.44375838  .00000594  00000+0  61579-4 0  9996
2 39492  82.4199   6.7306 0019053 192.4048 167.6712 14.88183243439558
SPROUT                  
1 39770U 14029E   22032.59741423  .00002873  00000+0  30907-3 0  9997
2 39770  97.9297 149.0128 0008628 167.9320 192.2121 14.89276831417434
UNISAT-6                
1 40012U 14033C   22032.54568559  .00001139  00000+0  17417-3 0  9990
2 40012  97.6620 227.7779 0056659 238.4599 121.1070 14.74535418409952
BUGSAT-1 (TITA)         
1 40014U 14033E   22032.59146558  .00001380  00000+0  12725-3 0  9993
2 40014  98.1327  25.5801 0032464 125.3480 235.0782 14.96081823415823
DUCHIFAT-1              
1 40021U 14033M   22032.36282550  .00002515  00000+0  25435-3 0  9992
2 40021  97.9981 340.3409 0013731 125.3206 234.9298 14.91874576414401
NANOSATC-BR1            
1 40024U 14033Q   22032.40486375  .00002176  00000+0  22630-3 0  9998
2 40024  97.9731 334.4319 0013026 130.8601 229.3748 14.90888146413705
QB50P1                  
1 40025U 14033R   22032.54853443  .00001685  00000+0  18124-3 0  9995
2 40025  97.9509 329.0614 0013138 139.2036 221.0167 14.89813793413524
DTUSAT-2                
1 40030U 14033W   22032.55527090  .00001663  00000+0  18109-3 0  9997
2 40030  97.9303 324.9207 0012640 135.9085 224.3142 14.89333036413412
QB50P2                  
1 40032U 14033Y   22032.59170259  .00001552  00000+0  16960-3 0  9994
2 40032  97.9309 324.9679 0012616 136.5964 223.6249 14.89297078413391
POLYITAN-1              
1 40042U 14033AJ  22032.55809721  .00002111  00000+0  22606-3 0  9990
2 40042  97.9608 330.0975 0015457 132.0006 228.2530 14.89700189413414
TIGRISAT                
1 40043U 14033AK  22032.53820543  .00000902  00000+0  13878-3 0  9991
2 40043  97.6575 229.1220 0058381 236.0206 123.5448 14.74712582409599
AISAT                   
1 40054U 14034B   22032.40957585  .00002101  00000+0  29250-3 0  9991
2 40054  98.3436 198.5828 0013163  35.2287 324.9790 14.78876097409363
CANX-4                  
1 40055U 14034C   22032.42115688  .00000629  00000+0  10105-3 0  9996
2 40055  98.3342 185.1130 0015336  72.6729 287.6155 14.75191900408660
CANX-5                  
1 40056U 14034D   22032.42710829  .00000647  00000+0  10371-3 0  9990
2 40056  98.3342 185.1017 0015360  72.8780 287.4109 14.75185183399472
VELOX-I                 
1 40057U 14034E   22032.44449260  .00001166  00000+0  16712-3 0  9993
2 40057  98.3485 199.7374 0011724  49.4174 310.8061 14.78524111409375
METEOR-M 2              
1 40069U 14037A   22032.46821945 -.00000013  00000+0  13061-4 0  9991
2 40069  98.4432  56.4041 0005924   9.5556 350.5738 14.20696137392555
DX1                     
1 40071U 14037C   22032.46940014  .00000414  00000+0  60028-4 0  9992
2 40071  98.4277 254.2942 0009424  39.7956 320.3944 14.81639988409204
UKUBE-1                 
1 40074U 14037F   22032.52262677  .00001039  00000+0  12923-3 0  9998
2 40074  98.4020 265.9712 0005053  19.8868 340.2558 14.84866655409895
FIREBIRD 3              
1 40377U 15003B   22032.49107608  .00016971  00000+0  56565-3 0  9997
2 40377  99.1120 227.5244 0110889 123.8831 237.3010 15.25387301387665
FIREBIRD 4              
1 40378U 15003C   22032.52414089  .00016648  00000+0  55366-3 0  9995
2 40378  99.1126 227.7470 0110858 123.4639 237.7251 15.25464752387671
GRIFEX                  
1 40379U 15003D   22032.45574257  .00014336  00000+0  54308-3 0  9999
2 40379  99.1152 214.9230 0123053 161.7723 198.7977 15.20176259386940
CP10 (EXOCUBE)          
1 40380U 15003E   22032.42759082  .00012687  00000+0  51271-3 0  9992
2 40380  99.1192 208.3408 0129163 183.7425 176.2850 15.17507252386512
DEORBITSAIL             
1 40719U 15032E   22032.23743098  .00001896  00000+0  27062-3 0  9990
2 40719  97.8015 275.0223 0017531  86.0103 274.3112 14.77762624353769
NUDT-PHONESAT           
1 40900U 15049B   22032.56962841  .00013008  00000+0  45562-3 0  9998
2 40900  97.4114  50.4626 0012742  56.0521  44.2597 15.29536707353804
XW-2A                   
1 40903U 15049E   22032.56290013  .00011790  00000+0  22542-3 0  9995
2 40903  97.2064  91.2840 0009642 255.2651 238.8925 15.48190798358204
XW-2C                   
1 40906U 15049H   22032.57827545  .00002951  00000+0  14989-3 0  9990
2 40906  97.4925  37.2490 0016055 109.3893  42.1785 15.17566039352305
XW-2D                   
1 40907U 15049J   22032.58260541  .00003470  00000+0  17354-3 0  9995
2 40907  97.4910  37.1427 0015434 105.4212  42.7157 15.17999767352342
LILACSAT-2              
1 40908U 15049K   22032.53175095  .00002018  00000+0  11155-3 0  9990
2 40908  97.5133  34.5816 0016974 123.4677 353.0908 15.14924924351902
XW-2E                   
1 40909U 15049L   22032.58783118  .00005447  00000+0  24866-3 0  9999
2 40909  97.4670  41.4424 0014658  90.1323   5.1144 15.20925446352742
XW-2F                   
1 40910U 15049M   22032.53960696  .00005439  00000+0  25186-3 0  9991
2 40910  97.4746  40.5011 0015772  90.2225  29.0923 15.20416062352514
XW-2B                   
1 40911U 15049N   22032.58912922  .00003614  00000+0  18111-3 0  9999
2 40911  97.4903  37.7887 0015305 106.6073 349.7519 15.17907690352234
KAITUO 1B               
1 40912U 15049P   22032.53822748  .00006301  00000+0  26895-3 0  9995
2 40912  97.4424  44.8715 0015572  63.1326  55.8726 15.23142451353044
TIANWANG 1A (TW-1A)     
1 40928U 15051D   22032.54892059  .00018900  00000+0  33261-3 0  9991
2 40928  97.0583  57.2778 0009394 156.0511 355.0348 15.50453988357121
LAPAN-A2                
1 40931U 15052B   22030.77250243  .00000823  00000+0  25367-4 0  9996
2 40931   5.9970  71.1209 0013587  17.1532 128.4088 14.76725120342951
LQSAT                   
1 40958U 15057A   22032.43594228  .00000163  00000+0  32614-4 0  9999
2 40958  97.7723  84.6013 0019174  42.5181 317.7511 14.73246133339956
ATHENOXAT 1             
1 41168U 15077C   22032.29879170  .00007858  00000+0  34523-3 0  9999
2 41168  14.9865  16.7093 0009744 134.0948 264.5446 15.17467863339570
GALASSIA                
1 41170U 15077E   22032.25545051  .00009688  00000+0  43309-3 0  9991
2 41170  14.9902   7.4031 0011580 160.0498 200.0277 15.17477908339482
VELOX-II                
1 41171U 15077F   22032.46448589  .00007639  00000+0  37454-3 0  9991
2 41171  14.9924  72.6470 0008247  14.5727 345.4831 15.13677979338960
CHUBUSAT-2              
1 41338U 16012B   22032.48115684  .00001844  00000+0  13484-3 0  9994
2 41338  31.0019 169.2778 0013557 244.6105 115.3127 15.00834280327034
CHUBUSAT-3              
1 41339U 16012C   22032.48318648  .00001213  00000+0  86106-4 0  9992
2 41339  31.0092 166.2783 0013407 252.9304 106.9892 15.00953288327031
HORYU-4                 
1 41340U 16012D   22032.61154258  .00003136  00000+0  22446-3 0  9996
2 41340  31.0044 146.0038 0013616 290.0888  69.8283 15.02399163327276
